STARLINK-1991
1 47587U 21009AR  26092.83335647  .00167047  00000+0  12266-2 0  9994
2 47587  53.0416 213.5173 0002107  12.1833  57.2733 15.72104801  5957
